ONEWEB-0029             
1 45445U 20020X   24179.69358760 -.00000200  00000+0 -60033-3 0  9991
2 45445  87.8966 164.2427 0002257  89.0567 271.0820 13.11418981208361
ONEWEB-0068             
1 45446U 20020Y   24179.51640228 -.00000351  00000+0 -10265-2 0  9994
2 45446  87.8960 164.2632 0002213  86.9180 273.2201 13.11415111208283
ONEWEB-0046             
1 45447U 20020Z   24179.51385772 -.00000300  00000+0 -88267-3 0  9997
2 45447  87.8961 164.2758 0002088  96.5488 263.5878 13.11416459208291
ONEWEB-0063             
1 45448U 20020AA  24179.69527652 -.00000115  00000+0 -36060-3 0  9990
2 45448  87.8964 164.2409 0001897  94.6186 265.5158 13.11418097208393
ONEWEB-0019             
1 45449U 20020AB  24179.51723789 -.00000394  00000+0 -11480-2 0  9998
2 45449  87.8966 164.2792 0001909  83.3839 276.7506 13.11414411208224
ONEWEB-0094             
1 45450U 20020AC  24179.17895217 -.00000256  00000+0 -69377-3 0  9994
2 45450  87.9172 149.1786 0002226  86.6323 273.5063 13.17646270211490
ONEWEB-0087             
1 45451U 20020AD  24179.40013157  .00000446  00000+0  12212-2 0  9990
2 45451  87.8959 164.2715 0002322  91.3338 268.8055 13.11418807208254
ONEWEB-0082             
1 45452U 20020AE  24179.47317023  .00000315  00000+0  85428-3 0  9992
2 45452  87.8965 164.2604 0002066  84.3058 275.8305 13.11419704208359
ONEWEB-0050             
1 45453U 20020AF  24179.07030461  .00002956  00000+0  30557-3 0  9993
2 45453  88.0021  25.6403 0005173  67.4925 292.6851 14.89816520233095
ONEWEB-0034             
1 45454U 20020AG  24178.96113571  .00000348  00000+0  94748-3 0  9990
2 45454  87.8962 164.3811 0002098  86.1897 273.9471 13.11414002208208
ONEWEB-0060             
1 45455U 20020AH  24179.00365126  .00000232  00000+0  61854-3 0  9996
2 45455  87.8956 164.3899 0002594 108.1757 251.9653 13.11409634208167
ONEWEB-0086             
1 45456U 20020AJ  24179.44434050 -.00000476  00000+0 -13781-2 0  9995
2 45456  87.8962 164.2863 0002498  89.6645 270.4769 13.11416641208279
ONEWEB-0088             
1 45457U 20020AK  24179.49861146  .00000364  00000+0  99004-3 0  9998
2 45457  87.8956 164.2405 0002134  89.2171 270.9201 13.11413883208228
ONEWEB-0102             
1 47258U 20100A   24179.37968836 -.00000273  00000+0 -79305-3 0  9992
2 47258  87.8947 134.0147 0001971  78.3040 281.8310 13.12443352170314
ONEWEB-0109             
1 47259U 20100B   24179.38781767  .00000165  00000+0  42272-3 0  9991
2 47259  87.8948 133.9774 0002001  77.8099 282.3254 13.12444388170147
ONEWEB-0110             
1 47260U 20100C   24179.87119397  .00000331  00000+0  88584-3 0  9992
2 47260  87.8942 133.8870 0002108  77.1842 282.9522 13.12442922170377
ONEWEB-0111             
1 47261U 20100D   24179.36834473 -.00000412  00000+0 -11816-2 0  9991
2 47261  87.8946 133.9828 0002058  79.7530 280.3830 13.12443918170147
ONEWEB-0114             
1 47262U 20100E   24179.17043394  .00000432  00000+0  11652-2 0  9993
2 47262  87.8942 134.0375 0001651  72.2341 287.8968 13.12450695170075
ONEWEB-0117             
1 47263U 20100F   24179.39105948  .00000358  00000+0  95998-3 0  9995
2 47263  87.8948 133.9696 0002116  81.7620 278.3748 13.12443032170111
ONEWEB-0118             
1 47264U 20100G   24179.88090361  .00000026  00000+0  36094-4 0  9997
2 47264  87.8946 133.8761 0001615  87.9525 272.1788 13.12440003170376
ONEWEB-0119             
1 47265U 20100H   24179.37482513 -.00000258  00000+0 -75115-3 0  9991
2 47265  87.8947 134.0150 0002114  80.2241 279.9126 13.12444733170284
ONEWEB-0120             
1 47266U 20100J   24179.16894810  .00000497  00000+0  13467-2 0  9990
2 47266  87.8947 134.0453 0001915  79.9332 280.2013 13.12445262170283
ONEWEB-0121             
1 47267U 20100K   24179.38616325 -.00000917  00000+0 -25834-2 0  9998
2 47267  87.8946 133.9934 0002337  82.3040 277.8354 13.12447912170226
ONEWEB-0122             
1 47268U 20100L   24179.38115882 -.00000366  00000+0 -10541-2 0  9998
2 47268  87.8942 133.9983 0002056  76.1034 284.0323 13.12444673170136
ONEWEB-0123             
1 47269U 20100M   24179.37642989 -.00000235  00000+0 -68812-3 0  9991
2 47269  87.8946 134.0135 0001985  82.1673 277.9681 13.12441948170273
ONEWEB-0124             
1 47270U 20100N   24179.28884621 -.00000608  00000+0 -17251-2 0  9998
2 47270  87.8948 134.0274 0002341  81.2125 278.9268 13.12442880170144
ONEWEB-0125             
1 47271U 20100P   24179.41863537  .00000197  00000+0  51324-3 0  9998
2 47271  87.8947 133.9611 0002084  91.9531 268.1836 13.12441377170221
ONEWEB-0126             
1 47272U 20100Q   24179.36752450 -.00000386  00000+0 -11089-2 0  9999
2 47272  87.8943 133.9763 0001946  78.2855 281.8492 13.12444546170286
ONEWEB-0127             
1 47273U 20100R   24179.17693263  .00000525  00000+0  14238-2 0  9997
2 47273  87.8948 134.0433 0002001  79.9546 280.1808 13.12443233170281
ONEWEB-0128             
1 47274U 20100S   24179.80953333 -.00000073  00000+0 -23898-3 0  9998
2 47274  87.8954 133.9222 0002299  75.8655 284.2729 13.12440466170381
ONEWEB-0129             
1 47275U 20100T   24179.86469950 -.00009683  00000+0 -26959-1 0  9997
2 47275  87.8948 133.8769 0001479  15.4218 344.6955 13.12496689170328
ONEWEB-0130             
1 47276U 20100U   24179.43483402 -.00000360  00000+0 -10370-2 0  9993
2 47276  87.8945 133.9697 0002077  77.2905 282.8455 13.12441034170233
ONEWEB-0131             
1 47277U 20100V   24179.43159493 -.00000264  00000+0 -76876-3 0  9991
2 47277  87.8949 133.9856 0002178  79.2551 280.8822 13.12440624170270
ONEWEB-0132             
1 47278U 20100W   24179.38455492  .00000076  00000+0  17528-3 0  9992
2 47278  87.8949 133.9970 0002312  84.6922 275.4470 13.12444624170161
ONEWEB-0133             
1 47279U 20100X   24179.32454480  .00000491  00000+0  13290-2 0  9995
2 47279  87.8942 134.0070 0002206  79.6741 280.4636 13.12443581170311
ONEWEB-0134             
1 47280U 20100Y   24179.36995418 -.00000518  00000+0 -14750-2 0  9996
2 47280  87.8942 133.9855 0002147  73.7031 286.4334 13.12442909170294
ONEWEB-0135             
1 47281U 20100Z   24179.41701037  .00000271  00000+0  71848-3 0  9991
2 47281  87.8947 133.9931 0002347  69.9900 290.1481 13.12441544170322
ONEWEB-0136             
1 47282U 20100AA  24179.43645170 -.00000341  00000+0 -98261-3 0  9997
2 47282  87.8947 133.9564 0002067  67.3649 292.7697 13.12440878170254
ONEWEB-0137             
1 47283U 20100AB  24178.93686510  .00000366  00000+0  98121-3 0  9995
2 47283  87.8942 134.0803 0001905  81.2708 278.8636 13.12443916170095
ONEWEB-0138             
1 47284U 20100AC  24179.83061516 -.00000364  00000+0 -10469-2 0  9997
2 47284  87.8941 133.9150 0002026  78.6949 281.4407 13.12444638170290
ONEWEB-0139             
1 47285U 20100AD  24179.91667824 -.00017781  00000+0 -49550-1 0  9994
2 47285  87.8945 133.8677 0002122  82.6902 139.6552 13.12452720170374
ONEWEB-0140             
1 47286U 20100AE  24179.36669782 -.00000401  00000+0 -11498-2 0  9991
2 47286  87.8944 133.9827 0002077  76.7889 283.3471 13.12441240170269
ONEWEB-0141             
1 47287U 20100AF  24179.41199443  .00000434  00000+0  11718-2 0  9999
2 47287  87.8943 133.9854 0001977  86.2952 273.8403 13.12444234170269
ONEWEB-0142             
1 47288U 20100AG  24179.38048922 -.00000056  00000+0 -19190-3 0  9996
2 47288  87.8942 133.9724 0001767  78.8020 281.3307 13.12445009170252
ONEWEB-0143             
1 47289U 20100AH  24179.86794084  .00000438  00000+0  11809-2 0  9997
2 47289  87.8945 133.8966 0002097  81.5595 278.5771 13.12443963170292
ONEWEB-0144             
1 47290U 20100AJ  24179.38293429 -.00000023  00000+0 -99178-4 0  9992
2 47290  87.8945 133.9763 0001763  74.5066 285.6257 13.12444321170156
ONEWEB-0145             
1 47291U 20100AK  24179.42996443 -.00000203  00000+0 -60010-3 0  9996
2 47291  87.8944 133.9909 0001956  79.2043 280.9305 13.12440418170356
ONEWEB-0146             
1 47292U 20100AL  24179.57920020  .00000005  00000+0 -22720-4 0  9997
2 47292  87.8946 133.9449 0002467  87.4261 272.7150 13.12442880170283
ONEWEB-0147             
1 47293U 20100AM  24179.39265882  .00000345  00000+0  92356-3 0  9993
2 47293  87.8942 133.9755 0002133  72.0210 288.1150 13.12445056170159
ONEWEB-0115             
1 48042U 21025A   24179.52566569 -.00000024  00000+0 -99917-4 0  9991
2 48042  87.8926 103.4808 0002153  79.2264 280.9108 13.13471986159135
ONEWEB-0152             
1 48043U 21025B   24179.53837351  .00000219  00000+0  56396-3 0  9990
2 48043  87.8931 103.4761 0002099  78.2753 281.8612 13.13471384159098
ONEWEB-0153             
1 48044U 21025C   24179.21142739 -.00000212  00000+0 -61681-3 0  9993
2 48044  87.8934 103.5287 0001950  76.5702 283.5644 13.13471687159041
ONEWEB-0154             
1 48045U 21025D   24179.20825276 -.00000227  00000+0 -65658-3 0  9991
2 48045  87.8929 103.5406 0002034  75.6731 284.4624 13.13472004159003
ONEWEB-0116             
1 48046U 21025E   24179.85894673  .00000371  00000+0  97968-3 0  9997
2 48046  87.8935 103.3806 0002203  79.7215 280.4162 13.13471679159227
ONEWEB-0150             
1 48047U 21025F   24179.83354282 -.00000028  00000+0 -11265-3 0  9990
2 48047  87.8927 103.4039 0001899  79.0346 281.0997 13.13467898159115
ONEWEB-0107             
1 48048U 21025G   24179.53042130  .00000078  00000+0  17794-3 0  9990
2 48048  87.8928 103.4623 0001685  78.3989 281.7329 13.13472134159052
ONEWEB-0101             
1 48049U 21025H   24179.18921972 -.00000065  00000+0 -21362-3 0  9996
2 48049  87.8935 103.5471 0001991  74.3802 285.7546 13.13469684158985
ONEWEB-0113             
1 48050U 21025J   24179.54788543  .00000333  00000+0  87816-3 0  9995
2 48050  87.8933 103.4576 0002161  77.9347 282.2025 13.13471540159117
ONEWEB-0112             
1 48051U 21025K   24179.53518463  .00000118  00000+0  28888-3 0  9992
2 48051  87.8927 103.4589 0001972  80.2837 279.8515 13.13472229159138
